{"fetched_at":"2026-06-06T13:27:30Z","count":1118,"tles":[{"name":"A-SEANSAT-PG1","line1":"1 57197U 23091AH  26156.94182737  .00024315  00000+0  68154-3 0  9996","line2":"2 57197  97.5080 226.2865 0008633 118.0348 242.1769 15.36559745162983","category":"Other"},{"name":"HJ-2F","line1":"1 57519U 23116A   26157.20905551  .00010290  00000+0  45061-3 0  9998","line2":"2 57519  97.3847 162.6204 0010561  83.7756 276.4684 15.22163056157086","category":"Other"},{"name":"H2SAT (HEINRICH HERTZ)","line1":"1 57213U 23093A   26155.13748118  .00000014  00000+0  00000+0 0  9990","line2":"2 57213   0.0448 123.4904 0000974 332.0680 207.2004  1.00272490 10787","category":"Other"},{"name":"UTMN 2 (RS27S)","line1":"1 57203U 23091AP  26156.95642794  .00017368  00000+0  56736-3 0  9992","line2":"2 57203  97.5087 224.0242 0009460 117.1138 243.1069 15.31769519162823","category":"Other"},{"name":"VIZARD-METEO (RS38S)","line1":"1 57189U 23091Z   26156.94135751  .00022480  00000+0  64883-3 0  9997","line2":"2 57189  97.5091 226.2043 0008753 110.9917 249.2264 15.35659105162966","category":"Other"},{"name":"METEOR-M2 4","line1":"1 59051U 24039A   26157.21007073  .00000031  00000+0  33502-4 0  9999","line2":"2 59051  98.7006 116.6465 0006634 192.8325 167.2685 14.22428450117703","category":"Weather"},{"name":"MONITOR-4 (RS57S)","line1":"1 57182U 23091S   26156.91224968  .00014141  00000+0  52343-3 0  9999","line2":"2 57182  97.5077 220.2479 0012908 136.1392 224.0874 15.27706119162578","category":"Other"},{"name":"FENGYUN 3F","line1":"1 57490U 23111A   26157.19302240  .00000043  00000+0  40876-4 0  9990","line2":"2 57490  98.6836 227.4063 0001561 101.1238 259.0114 14.19937227147302","category":"Weather"},{"name":"SVYATOBOR 1 (RS60S)","line1":"1 57187U 23091X   26156.91575691  .00012046  00000+0  46442-3 0  9991","line2":"2 57187  97.5089 220.6719 0010815 128.3872 231.8339 15.26419946162590","category":"Other"},{"name":"SITRO-AIS 12 (SMIRENNIY)","line1":"1 57204U 23091AQ  26156.94710115  .00027505  00000+0  73589-3 0  9994","line2":"2 57204  97.5092 227.4235 0007862 108.3438 251.8662 15.37987942163046","category":"Other"},{"name":"HORS 1","line1":"1 57188U 23091Y   26156.90206220  .00012164  00000+0  46758-3 0  9991","line2":"2 57188  97.5066 220.4220 0010250 127.7723 232.4445 15.26520921162593","category":"Other"},{"name":"XRISM","line1":"1 57800U 23137A   26156.90518341  .00005543  00000+0  30604-3 0  9999","line2":"2 57800  31.0020  72.6760 0007858 211.5991 148.4176 15.12365717151154","category":"Other"},{"name":"TRANSPORTER-11 OBJECT A","line1":"1 60468U 24149A   26156.46806124  .00008916  00000+0  28469-3 0  9990","line2":"2 60468  97.3729 236.4359 0001812 249.1666 110.9382 15.32708766100269","category":"Other"},{"name":"HORS 2","line1":"1 57196U 23091AG  26156.92799131  .00018819  00000+0  61776-3 0  9990","line2":"2 57196  97.5087 223.8064 0009533 121.0349 239.1829 15.31595350162809","category":"Other"},{"name":"WARATAH SEED-1","line1":"1 60469U 24149B   26156.44836495  .00012707  00000+0  36885-3 0  9997","line2":"2 60469  97.3685 237.0150 0000419 223.9423 136.1788 15.35638944100319","category":"Other"},{"name":"LEMUR-2-TOMATOKECHUP","line1":"1 60471U 24149D   26156.96668752  .00014737  00000+0  42518-3 0  9991","line2":"2 60471  97.3796 238.9874 0000405 214.8468 145.2749 15.35794505100449","category":"Other"},{"name":"AVION KALUGA 650","line1":"1 57195U 23091AF  26156.90717463  .00007535  00000+0  35005-3 0  9994","line2":"2 57195  97.5090 216.5301 0011430 143.7206 216.4806 15.20230161162310","category":"Other"},{"name":"CONNECTA IOT-1","line1":"1 60472U 24149E   26156.79878325  .00004663  00000+0  19864-3 0  9997","line2":"2 60472  97.3754 233.2832 0001359  14.6544 345.4732 15.23451124100064","category":"Other"}]}