OBJECT_NAME,OBJECT_ID,EPOCH,MEAN_MOTION,ECCENTRICITY,INCLINATION,RA_OF_ASC_NODE,ARG_OF_PERICENTER,MEAN_ANOMALY,EPHEMERIS_TYPE,CLASSIFICATION_TYPE,NORAD_CAT_ID,ELEMENT_SET_NO,REV_AT_EPOCH,BSTAR,MEAN_MOTION_DOT,MEAN_MOTION_DDOT
MONITOR-4 (RS57S),2023-091S,2026-06-05T21:53:38.372352,15.27706119,.0012908,97.5077,220.2479,136.1392,224.0874,0,U,57182,999,16257,.52343E-3,.14141E-3,0
SVYATOBOR 1 (RS60S),2023-091X,2026-06-05T21:58:41.397024,15.26419946,.0010815,97.5089,220.6719,128.3872,231.8339,0,U,57187,999,16259,.46442E-3,.12046E-3,0
HORS 1,2023-091Y,2026-06-05T21:38:58.174080,15.26520921,.001025,97.5066,220.4220,127.7723,232.4445,0,U,57188,999,16259,.46758E-3,.12164E-3,0
VIZARD-METEO (RS38S),2023-091Z,2026-06-05T22:35:33.288864,15.35659105,.0008753,97.5091,226.2043,110.9917,249.2264,0,U,57189,999,16296,.64883E-3,.2248E-3,0
AVION KALUGA 650,2023-091AF,2026-06-05T21:46:19.888032,15.20230161,.001143,97.5090,216.5301,143.7206,216.4806,0,U,57195,999,16231,.35005E-3,.7535E-4,0
HORS 2,2023-091AG,2026-06-05T22:16:18.449184,15.31595350,.0009533,97.5087,223.8064,121.0349,239.1829,0,U,57196,999,16280,.61776E-3,.18819E-3,0
A-SEANSAT-PG1,2023-091AH,2026-06-05T22:36:13.884768,15.36559745,.0008633,97.5080,226.2865,118.0348,242.1769,0,U,57197,999,16298,.68154E-3,.24315E-3,0
UTMN 2 (RS27S),2023-091AP,2026-06-05T22:57:15.374016,15.31769519,.000946,97.5087,224.0242,117.1138,243.1069,0,U,57203,999,16282,.56736E-3,.17368E-3,0
SITRO-AIS 12 (SMIRENNIY),2023-091AQ,2026-06-05T22:43:49.539360,15.37987942,.0007862,97.5092,227.4235,108.3438,251.8662,0,U,57204,999,16304,.73589E-3,.27505E-3,0
H2SAT (HEINRICH HERTZ),2023-093A,2026-06-04T03:17:58.373952,1.00272490,.00009749,0.0448,123.4904,332.0680,207.2004,0,U,57213,999,1078,0,.14E-6,0
FENGYUN 3F,2023-111A,2026-06-06T04:37:57.135360,14.19937227,.0001561,98.6836,227.4063,101.1238,259.0114,0,U,57490,999,14730,.40876E-4,.43E-6,0
HJ-2F,2023-116A,2026-06-06T05:01:02.396064,15.22163056,.0010561,97.3847,162.6204,83.7756,276.4684,0,U,57519,999,15708,.45061E-3,.1029E-3,0
XRISM,2023-137A,2026-06-05T21:43:27.846624,15.12365717,.0007858,31.0020,72.6760,211.5991,148.4176,0,U,57800,999,15115,.30604E-3,.5543E-4,0
METEOR-M2 4,2024-039A,2026-06-06T05:02:30.111072,14.22428450,.0006634,98.7006,116.6465,192.8325,167.2685,0,U,59051,999,11770,.33502E-4,.31E-6,0
TRANSPORTER-11 OBJECT A,2024-149A,2026-06-05T11:14:00.491136,15.32708766,.00018123,97.3729,236.4359,249.1666,110.9382,0,U,60468,999,10026,.28468981E-3,.8916E-4,0
WARATAH SEED-1,2024-149B,2026-06-05T10:45:38.731680,15.35638944,.00004199,97.3685,237.0150,223.9423,136.1788,0,U,60469,999,10031,.36884816E-3,.12707E-3,0
LEMUR-2-TOMATOKECHUP,2024-149D,2026-06-05T23:12:01.801728,15.35794505,.0000405,97.3796,238.9874,214.8468,145.2749,0,U,60471,999,10044,.42518E-3,.14737E-3,0
CONNECTA IOT-1,2024-149E,2026-06-05T19:10:14.872800,15.23451124,.00013599,97.3754,233.2832,14.6544,345.4732,0,U,60472,999,10006,.1986439E-3,.4663E-4,0
